{
  "type": "FeatureCollection",
  "name": "SAMPLE_route_not_marcaj",
  "crs": { "type": "name", "properties": { "name": "EPSG:4326" } },
  "features": [
    {
      "type": "Feature",
      "properties": {
        "kind": "route",
        "closed": true,
        "length_m": 412.0,
        "crs_measured": "EPSG:32635",
        "start_tolerance_m": 5,
        "sample": true,
        "note": "Synthetic walk near the Siret3 bbox. Replace after Marcaj export."
      },
      "geometry": {
        "type": "LineString",
        "coordinates": [
          [28.71080, 47.12140],
          [28.71140, 47.12140],
          [28.71140, 47.12210],
          [28.71220, 47.12210],
          [28.71220, 47.12270],
          [28.71120, 47.12270],
          [28.71120, 47.12210],
          [28.71080, 47.12210],
          [28.71080, 47.12140]
        ]
      }
    },
    {
      "type": "Feature",
      "properties": { "kind": "start", "sample": true },
      "geometry": { "type": "Point", "coordinates": [28.71080, 47.12140] }
    }
  ]
}
