{
  "type": "FeatureCollection",
  "name": "SAMPLE_layers_not_marcaj",
  "features": [
    {
      "type": "Feature",
      "properties": { "kind": "vineyard", "id": "V-0001", "area_m2": 1840, "sample": true },
      "geometry": {
        "type": "Polygon",
        "coordinates": [[
          [28.71070, 47.12130],
          [28.71240, 47.12130],
          [28.71240, 47.12285],
          [28.71070, 47.12285],
          [28.71070, 47.12130]
        ]]
      }
    },
    {
      "type": "Feature",
      "properties": { "kind": "row", "id": "R-V-0001-01", "length_m": 86.4, "sample": true },
      "geometry": {
        "type": "LineString",
        "coordinates": [[28.71085, 47.12155], [28.71225, 47.12155]]
      }
    },
    {
      "type": "Feature",
      "properties": { "kind": "row", "id": "R-V-0001-02", "length_m": 84.1, "sample": true },
      "geometry": {
        "type": "LineString",
        "coordinates": [[28.71085, 47.12245], [28.71225, 47.12245]]
      }
    },
    {
      "type": "Feature",
      "properties": { "kind": "interrow_area", "id": "V-0001", "interrow_cover": "grass", "sample": true },
      "geometry": {
        "type": "Polygon",
        "coordinates": [[
          [28.71088, 47.12162],
          [28.71222, 47.12162],
          [28.71222, 47.12238],
          [28.71088, 47.12238],
          [28.71088, 47.12162]
        ]]
      }
    },
    {
      "type": "Feature",
      "properties": { "kind": "waste", "area_m2": 4.2, "sample": true },
      "geometry": {
        "type": "Polygon",
        "coordinates": [[
          [28.71205, 47.12260],
          [28.71218, 47.12260],
          [28.71218, 47.12270],
          [28.71205, 47.12270],
          [28.71205, 47.12260]
        ]]
      }
    },
    {
      "type": "Feature",
      "properties": { "kind": "forbidden", "sample": true },
      "geometry": {
        "type": "Polygon",
        "coordinates": [[
          [28.71040, 47.12290],
          [28.71065, 47.12290],
          [28.71065, 47.12310],
          [28.71040, 47.12310],
          [28.71040, 47.12290]
        ]]
      }
    }
  ]
}
